Mizuho,e,11.83394,339.67798,337.73833,3.0671689,0.18348372,0.1430183,345.83502,11/5/1990,1950.0,11.02,0.25
Mnemosyne,e,15.21518,198.74726,216.06326,3.1474233,0.17651082,0.1195438,103.74994,11/5/1990,1950.0,6.95,0.07
Mocia,e,20.25917,340.86088,193.93764,3.3917048,0.15778910,0.0717747,14.23369,11/5/1990,1950.0,9.07,0.15
Modena,e,9.44567,77.56237,206.29731,2.4157721,0.26249445,0.1198345,45.94454,11/5/1990,1950.0,12.90,0.25
Modestia,e,7.86223,290.55600,68.34933,2.3255126,0.27792398,0.0906750,115.27653,11/5/1990,1950.0,10.69,0.25
Moeller,e,1.98979,283.35528,252.07095,2.2467602,0.29266379,0.0839272,284.53922,11/5/1990,1950.0,13.48,0.25
Moguntia,e,10.09499,7.84054,66.75359,3.0230936,0.18751097,0.0908356,196.10706,11/5/1990,1950.0,9.99,0.25
Mohler,e,0.51009,162.32217,184.34475,3.1365697,0.17742780,0.1824593,251.21413,11/5/1990,1950.0,11.60,0.25
Moira,e,7.70617,103.10068,126.96998,2.7336785,0.21806347,0.1604403,167.26984,11/5/1990,1950.0,9.75,0.15
Moisseiev,e,13.84569,47.88528,306.27657,2.6098320,0.23376810,0.1949911,37.05361,11/5/1990,1950.0,11.67,0.15
Moldavia,e,6.39874,167.52904,260.44927,2.2957669,0.28334294,0.0920095,165.61027,11/5/1990,1950.0,13.45,0.25
Moliere,e,18.35228,188.27575,264.27871,3.1281039,0.17814856,0.1586782,89.46142,11/5/1990,1950.0,12.90,0.25
Mombasa,e,17.33710,115.49432,251.02042,2.8106006,0.20917288,0.1376747,57.21424,11/5/1990,1950.0,10.36,0.15
Monachia,e,6.19736,17.18243,15.02554,2.3075826,0.28116948,0.1784671,205.63876,11/5/1990,1950.0,11.93,0.25
Monica,e,9.77759,352.81276,38.53385,3.0116299,0.18858262,0.1170096,44.03359,11/5/1990,1950.0,11.10,0.25
Monnig,e,5.46081,274.54421,311.56965,2.1940607,0.30327117,0.1153058,312.49472,11/5/1990,1950.0,13.30,0.25
Montague,e,6.78248,84.30641,69.72939,2.5689869,0.23936532,0.0232425,70.61514,11/5/1990,1950.0,9.50,0.15
Montana,e,4.48782,237.96867,352.24697,2.5357063,0.24409318,0.0593001,97.22012,11/5/1990,1950.0,10.45,0.25
Montefiore,e,5.26121,80.02556,81.11556,2.1802617,0.30615485,0.0393865,312.90461,11/5/1990,1950.0,11.53,0.25
Monterosa,e,6.71228,48.05849,338.08156,2.7496239,0.21616936,0.2509140,191.96516,11/5/1990,1950.0,10.17,0.15
Moore,e,5.54482,157.73223,65.27570,2.3852452,0.26754974,0.1051741,57.58453,11/5/1990,1950.0,13.08,0.25
Moore-Sitterly,e,1.13191,139.93607,192.28329,2.1974799,0.30256361,0.1782009,248.85822,11/5/1990,1950.0,13.60,0.25
Mora,e,3.91681,213.36456,16.62798,2.4884693,0.25107625,0.0818514,36.96884,11/5/1990,1950.0,11.90,0.25
Morabito,e,14.85598,121.62421,289.01396,3.1609467,0.17537929,0.2228415,332.75344,11/5/1990,1950.0,10.81,0.15
Moravia,e,24.02033,94.41795,136.36628,3.2473096,0.16842964,0.0606029,331.52362,11/5/1990,1950.0,11.20,0.25
Moreau,e,11.57140,104.96694,68.09870,2.5996371,0.23514458,0.1256465,236.68758,11/5/1990,1950.0,12.11,0.15
Morgan,e,5.27504,353.78145,43.97468,2.2299726,0.29597483,0.1482581,133.93638,11/5/1990,1950.0,14.60,0.25
Morosovia,e,11.26910,106.57599,160.74284,3.0090525,0.18882497,0.0603050,123.38565,11/5/1990,1950.0,10.08,0.25
Morris,e,6.18203,63.20781,255.57102,2.2716034,0.28787590,0.1731896,106.96125,11/5/1990,1950.0,13.10,0.25
Morrison,e,2.39817,126.08382,61.68497,2.2160216,0.29877420,0.0631115,310.47517,11/5/1990,1950.0,12.99,0.25
Moskva,e,14.84984,183.67372,124.66074,2.5382607,0.24372481,0.1288565,249.77902,11/5/1990,1950.0,10.20,0.25
Moskvina,e,13.19491,352.33180,356.05883,2.5629481,0.24021181,0.1846018,78.95493,11/5/1990,1950.0,13.39,0.15
Moultona,e,1.77165,183.95398,250.05795,2.8629748,0.20345941,0.0484834,35.35462,11/5/1990,1950.0,12.02,0.25
Mourao,e,6.12572,223.24534,165.20226,2.3419497,0.27500319,0.1182127,182.24854,11/5/1990,1950.0,12.84,0.25
Mozartia,e,3.97865,304.16471,18.05551,2.2920345,0.28403532,0.2637281,41.34107,11/5/1990,1950.0,12.60,0.25
Mr. Spock,e,10.97320,157.10981,267.08290,3.0100821,0.18872809,0.0947946,144.65082,11/5/1990,1950.0,11.40,0.25
Mrinalini,e,2.54430,51.60209,302.27257,3.1928463,0.17275756,0.1411686,111.01007,11/5/1990,1950.0,12.04,0.15
Mrkos,e,15.00294,303.04072,86.20174,3.2050270,0.17177365,0.1156070,202.77988,11/5/1990,1950.0,11.28,0.15
Mtskheta,e,9.07589,170.39588,173.76123,2.5880588,0.23672432,0.0590372,248.65241,11/5/1990,1950.0,12.30,0.25
Muazzez,e,8.38747,38.04213,312.43223,3.3586106,0.16012701,0.2071342,46.23367,11/5/1990,1950.0,11.20,0.25
Mueller,e,18.90722,355.34271,69.23076,1.9340129,0.36645024,0.1009802,109.61065,11/5/1990,1950.0,13.40,0.25
Mundleria,e,13.13291,154.53206,75.07203,2.3767037,0.26899333,0.1579154,131.33460,11/5/1990,1950.0,12.90,0.25
Munoz,e,3.94193,356.52008,315.85699,2.2138285,0.29921826,0.1703965,341.25268,11/5/1990,1950.0,12.62,0.25
Muonio,e,4.56543,44.77503,318.26415,2.2335990,0.29525432,0.1991215,235.35599,11/5/1990,1950.0,12.63,0.25
Muphrid,f,13:54:41,18:24,2.68,2000
Murakami,e,8.81592,167.96222,217.57798,2.6937569,0.22292895,0.2550146,166.14035,11/5/1990,1950.0,12.90,0.25
Murayama,e,6.61350,26.26566,25.50915,2.2258102,0.29680546,0.1735177,268.40969,11/5/1990,1950.0,13.30,0.25
Muriel,e,10.23984,42.68635,35.72177,2.9977075,0.18989791,0.0680956,80.76050,11/5/1990,1950.0,12.00,0.25
Murmansk,e,11.35411,148.47983,193.01186,3.1341436,0.17763385,0.1429308,97.92034,11/5/1990,1950.0,11.75,0.15
Murray,e,6.62500,52.18602,334.10015,2.7853161,0.21202757,0.1930627,29.18759,11/5/1990,1950.0,11.55,0.15
Musa,e,10.21545,139.00873,111.33594,2.6592716,0.22727938,0.0542093,175.20228,11/5/1990,1950.0,10.24,0.15
Musashino,e,3.36898,75.90505,309.41763,2.3467635,0.27415747,0.2461512,34.44794,11/5/1990,1950.0,13.56,0.25
Muschi,e,14.40724,72.11918,178.81777,2.7188505,0.21984980,0.1291796,309.06431,11/5/1990,1950.0,10.02,0.25
Mussorgskia,e,10.10674,200.08285,87.27355,2.6426103,0.22943222,0.1849988,83.46150,11/5/1990,1950.0,10.56,0.15
Mustel,e,4.08025,152.76364,190.11012,2.2435819,0.29328590,0.1604671,136.69050,11/5/1990,1950.0,13.40,0.25
Myrrha,e,12.55222,124.93498,133.64100,3.2130938,0.17112717,0.1072476,196.49310,11/5/1990,1950.0,8.50,0.15
Naantali,e,10.82116,113.36604,121.99451,3.0067185,0.18904488,0.0370035,51.78684,11/5/1990,1950.0,10.70,0.25
Nada,e,9.77081,44.54724,189.87562,2.7500865,0.21611482,0.1839162,87.80765,11/5/1990,1950.0,12.00,0.25
Nadeev,e,1.62682,127.11767,300.58612,3.1931510,0.17273283,0.1952415,316.94631,11/5/1990,1950.0,11.49,0.15
Nadezhda,e,3.63427,301.76933,0.69989,2.2515868,0.29172324,0.1575197,261.68931,11/5/1990,1950.0,13.20,0.25
Naef,e,6.46543,354.39503,13.86953,2.3736615,0.26951063,0.1341094,334.22088,11/5/1990,1950.0,12.70,0.25
Naema,e,12.62466,42.90705,291.62179,2.9393714,0.19557907,0.0688625,316.79585,11/5/1990,1950.0,10.46,0.15
Naerum,e,13.02470,135.32745,136.01834,2.5976791,0.23541050,0.1276719,326.44107,11/5/1990,1950.0,13.03,0.15
Nakamura,e,3.08430,140.11382,65.63122,2.4671637,0.25433558,0.1216496,211.42116,11/5/1990,1950.0,13.00,0.25
Nakano,e,12.28432,312.22750,32.42733,3.0942371,0.18108134,0.0386228,47.92927,11/5/1990,1950.0,9.90,0.25
Namaqua,e,5.81683,57.67678,267.98164,2.7799772,0.21263866,0.1624476,43.32510,11/5/1990,1950.0,12.17,0.15
Namba,e,4.07047,217.91952,349.23730,2.4586090,0.25566418,0.0484784,233.70209,11/5/1990,1950.0,13.40,0.25
Namibia,e,7.68856,202.63469,132.93311,2.3668217,0.27067974,0.2755621,93.26300,11/5/1990,1950.0,13.60,0.25
Namur,e,3.02878,75.03740,158.32755,2.9484081,0.19468060,0.0159429,25.65427,11/5/1990,1950.0,12.90,0.25
Nancy,e,3.93116,225.30032,145.05778,2.2173327,0.29850924,0.1394279,200.42583,11/5/1990,1950.0,12.20,0.25
Naniwa,e,2.83991,1.36737,126.57140,2.2461593,0.29278125,0.0692463,46.49455,11/5/1990,1950.0,14.50,0.25
Nanking,e,20.13768,286.91714,98.61358,2.3682408,0.27043649,0.3752037,158.22657,11/5/1990,1950.0,12.70,0.25
Nanna,e,5.94591,224.53167,175.78415,2.8877411,0.20084762,0.2451122,7.05228,11/5/1990,1950.0,11.76,0.15
Nanon,e,9.30921,111.67008,130.83748,2.7113404,0.22076387,0.0668737,12.18631,11/5/1990,1950.0,9.44,0.15
Nansenia,e,9.21143,182.42173,59.89763,2.3126639,0.28024334,0.1057896,41.96841,11/5/1990,1950.0,11.68,0.25
Napolitania,e,23.11560,303.94521,243.31759,1.9643413,0.35799640,0.0478967,137.02310,11/5/1990,1950.0,14.70,0.25
Nasi,e,9.83210,62.12167,41.20172,2.7315220,0.21832176,0.2505098,193.31138,11/5/1990,1950.0,11.88,0.15
Nassovia,e,3.27820,93.86473,338.60600,2.8841148,0.20122654,0.0579585,12.50351,11/5/1990,1950.0,9.81,0.25
Nata,e,8.35854,312.91236,173.82402,3.1611340,0.17536370,0.0533857,303.63816,11/5/1990,1950.0,9.55,0.15
Natalie,e,12.70117,37.05329,295.21933,3.1513754,0.17617889,0.1745415,161.43664,11/5/1990,1950.0,10.39,0.24
Natascha,e,6.14742,357.54405,50.53030,2.5471939,0.24244379,0.1594498,68.49495,11/5/1990,1950.0,11.40,0.25
Nauheima,e,3.13715,130.59961,177.21598,2.8964434,0.19994314,0.0714911,118.16572,11/5/1990,1950.0,10.82,0.25
Nausikaa,e,6.81914,342.92826,29.89316,2.4026232,0.26465225,0.2477142,126.57290,11/5/1990,1950.0,7.13,0.03
Navajo,e,2.55306,19.37152,138.15799,3.2253948,0.17014914,0.4778904,245.49842,11/5/1990,1950.0,15.00,0.25
Ndola,e,7.60377,90.30903,190.24517,2.2462679,0.29276001,0.1618830,173.48384,11/5/1990,1950.0,12.94,0.25
Nealley,e,11.70282,159.29764,246.97261,3.2484033,0.16834459,0.0283025,70.08518,11/5/1990,1950.0,9.60,0.25
Neckar,e,2.54982,40.62388,14.19115,2.8688128,0.20283868,0.0582260,8.83820,11/5/1990,1950.0,10.66,0.25
Nedbal,e,9.67609,20.17016,62.52935,2.3460008,0.27429118,0.1903333,53.60508,11/5/1990,1950.0,13.70,0.25
Needham,e,14.63969,50.37681,357.89287,2.6539277,0.22796619,0.1791693,280.80608,11/5/1990,1950.0,12.85,0.15
Nefertiti,e,32.97140,339.43176,53.30107,1.5745231,0.49886213,0.2835254,12.66841,11/5/1990,1950.0,15.03,0.25
Nehalennia,e,2.99117,99.33515,52.83740,2.4093810,0.26353958,0.1392908,234.99229,11/5/1990,1950.0,13.98,0.25
Nei Monggol,e,9.99148,53.53452,281.06406,3.0247665,0.18735544,0.1129386,162.61181,11/5/1990,1950.0,11.50,0.25
Neith,e,4.74015,62.97676,327.80025,2.6054855,0.23435330,0.2594682,255.77378,11/5/1990,1950.0,11.60,0.25
Nekkar,f,15:1:57,40:23,3.49,2000
Nekrasov,e,10.20914,172.30359,195.08503,3.0177370,0.18801045,0.0914434,326.65808,11/5/1990,1950.0,11.60,0.25
